[{"OBJECT_NAME":"COSMOS 2524","OBJECT_ID":"2017-076A","EPOCH":"2026-03-09T23:23:35.640384","MEAN_MOTION":13.97416908,"ECCENTRICITY":0.00095468,"INCLINATION":67.1447,"RA_OF_ASC_NODE":73.9471,"ARG_OF_PERICENTER":248.4451,"MEAN_ANOMALY":111.5616,"EPHEMERIS_TYPE":0,"CLASSIFICATION_TYPE":"U","NORAD_CAT_ID":43032,"ELEMENT_SET_NO":999,"REV_AT_EPOCH":42174,"BSTAR":0.00037957358,"MEAN_MOTION_DOT":4.59e-6,"MEAN_MOTION_DDOT":0},{"OBJECT_NAME":"COSMOS 860 COOLANT","OBJECT_ID":"1976-103J","EPOCH":"2026-02-26T01:03:33.079104","MEAN_MOTION":13.87348473,"ECCENTRICITY":0.00688601,"INCLINATION":64.6977,"RA_OF_ASC_NODE":290.9434,"ARG_OF_PERICENTER":225.3858,"MEAN_ANOMALY":205.9793,"EPHEMERIS_TYPE":0,"CLASSIFICATION_TYPE":"U","NORAD_CAT_ID":29196,"ELEMENT_SET_NO":999,"REV_AT_EPOCH":63966,"BSTAR":0.00017936011,"MEAN_MOTION_DOT":1.24e-6,"MEAN_MOTION_DDOT":0}]
